CCSDS_OMM_VERS = 2.0
CREATION_DATE  = 
ORIGINATOR     = 

OBJECT_NAME    = COSMOS 2242
OBJECT_ID      = 1993-024A
CENTER_NAME    = EARTH
REF_FRAME      = TEME
TIME_SYSTEM    = UTC
MEAN_ELEMENT_THEORY = SGP/SGP4

EPOCH          = 2026-03-26T22:52:02.504928
MEAN_MOTION    = 14.96620712
ECCENTRICITY   = .0015008
INCLINATION    = 82.5160
RA_OF_ASC_NODE = 250.1990
ARG_OF_PERICENTER = 245.1611
MEAN_ANOMALY   = 114.8051

EPHEMERIS_TYPE = 0
CLASSIFICATION_TYPE = U
NORAD_CAT_ID   = 22626
ELEMENT_SET_NO = 999
REV_AT_EPOCH   = 78297
BSTAR          = .18284E-3
MEAN_MOTION_DOT = .2113E-4
MEAN_MOTION_DDOT = 0

CCSDS_OMM_VERS = 2.0
CREATION_DATE  = 
ORIGINATOR     = 

OBJECT_NAME    = SL-16 R/B
OBJECT_ID      = 1993-059B
CENTER_NAME    = EARTH
REF_FRAME      = TEME
TIME_SYSTEM    = UTC
MEAN_ELEMENT_THEORY = SGP/SGP4

EPOCH          = 2026-03-27T02:55:57.716256
MEAN_MOTION    = 14.17235297
ECCENTRICITY   = .00175036
INCLINATION    = 70.9923
RA_OF_ASC_NODE = 334.3676
ARG_OF_PERICENTER = 191.3199
MEAN_ANOMALY   = 168.7534

EPHEMERIS_TYPE = 0
CLASSIFICATION_TYPE = U
NORAD_CAT_ID   = 22803
ELEMENT_SET_NO = 999
REV_AT_EPOCH   = 68200
BSTAR          = -.47782173E-4
MEAN_MOTION_DOT = -.145E-5
MEAN_MOTION_DDOT = 0

CCSDS_OMM_VERS = 2.0
CREATION_DATE  = 
ORIGINATOR     = 

OBJECT_NAME    = ARIANE 40 R/B
OBJECT_ID      = 1993-061H
CENTER_NAME    = EARTH
REF_FRAME      = TEME
TIME_SYSTEM    = UTC
MEAN_ELEMENT_THEORY = SGP/SGP4

EPOCH          = 2026-03-27T03:44:51.563040
MEAN_MOTION    = 14.32870078
ECCENTRICITY   = .00099193
INCLINATION    = 98.4884
RA_OF_ASC_NODE = 154.6965
ARG_OF_PERICENTER = 227.6922
MEAN_ANOMALY   = 132.3422

EPHEMERIS_TYPE = 0
CLASSIFICATION_TYPE = U
NORAD_CAT_ID   = 22830
ELEMENT_SET_NO = 999
REV_AT_EPOCH   = 69660
BSTAR          = .94503128E-4
MEAN_MOTION_DOT = .215E-5
MEAN_MOTION_DDOT = 0

CCSDS_OMM_VERS = 2.0
CREATION_DATE  = 
ORIGINATOR     = 

OBJECT_NAME    = COSMOS 2278
OBJECT_ID      = 1994-023A
CENTER_NAME    = EARTH
REF_FRAME      = TEME
TIME_SYSTEM    = UTC
MEAN_ELEMENT_THEORY = SGP/SGP4

EPOCH          = 2026-03-27T06:41:12.185664
MEAN_MOTION    = 14.14376041
ECCENTRICITY   = .00090915
INCLINATION    = 71.0521
RA_OF_ASC_NODE = 138.3015
ARG_OF_PERICENTER = 345.6384
MEAN_ANOMALY   = 14.4479

EPHEMERIS_TYPE = 0
CLASSIFICATION_TYPE = U
NORAD_CAT_ID   = 23087
ELEMENT_SET_NO = 999
REV_AT_EPOCH   = 64729
BSTAR          = -.10504565E-3
MEAN_MOTION_DOT = -.248E-5
MEAN_MOTION_DDOT = 0

CCSDS_OMM_VERS = 2.0
CREATION_DATE  = 
ORIGINATOR     = 

OBJECT_NAME    = SL-16 R/B
OBJECT_ID      = 1994-023B
CENTER_NAME    = EARTH
REF_FRAME      = TEME
TIME_SYSTEM    = UTC
MEAN_ELEMENT_THEORY = SGP/SGP4

EPOCH          = 2026-03-27T05:54:58.012992
MEAN_MOTION    = 14.15014107
ECCENTRICITY   = .00054543
INCLINATION    = 71.0013
RA_OF_ASC_NODE = 34.0138
ARG_OF_PERICENTER = 269.1317
MEAN_ANOMALY   = 90.9181

EPHEMERIS_TYPE = 0
CLASSIFICATION_TYPE = U
NORAD_CAT_ID   = 23088
ELEMENT_SET_NO = 999
REV_AT_EPOCH   = 64857
BSTAR          = .20009509E-3
MEAN_MOTION_DOT = .34E-5
MEAN_MOTION_DDOT = 0

CCSDS_OMM_VERS = 2.0
CREATION_DATE  = 
ORIGINATOR     = 

OBJECT_NAME    = SL-16 R/B
OBJECT_ID      = 1994-074B
CENTER_NAME    = EARTH
REF_FRAME      = TEME
TIME_SYSTEM    = UTC
MEAN_ELEMENT_THEORY = SGP/SGP4

EPOCH          = 2026-03-27T02:37:20.682624
MEAN_MOTION    = 14.79427189
ECCENTRICITY   = .00071638
INCLINATION    = 97.7084
RA_OF_ASC_NODE = 116.2198
ARG_OF_PERICENTER = 153.3444
MEAN_ANOMALY   = 273.9846

EPHEMERIS_TYPE = 0
CLASSIFICATION_TYPE = U
NORAD_CAT_ID   = 23343
ELEMENT_SET_NO = 999
REV_AT_EPOCH   = 68982
BSTAR          = .70862238E-4
MEAN_MOTION_DOT = .48E-5
MEAN_MOTION_DDOT = 0

CCSDS_OMM_VERS = 2.0
CREATION_DATE  = 
ORIGINATOR     = 

OBJECT_NAME    = SL-16 R/B
OBJECT_ID      = 1994-077B
CENTER_NAME    = EARTH
REF_FRAME      = TEME
TIME_SYSTEM    = UTC
MEAN_ELEMENT_THEORY = SGP/SGP4

EPOCH          = 2026-03-27T01:55:05.750688
MEAN_MOTION    = 14.15569164
ECCENTRICITY   = .00020511
INCLINATION    = 70.9837
RA_OF_ASC_NODE = 315.9054
ARG_OF_PERICENTER = 198.0246
MEAN_ANOMALY   = 162.0805

EPHEMERIS_TYPE = 0
CLASSIFICATION_TYPE = U
NORAD_CAT_ID   = 23405
ELEMENT_SET_NO = 999
REV_AT_EPOCH   = 61869
BSTAR          = .26959682E-4
MEAN_MOTION_DOT = .5E-7
MEAN_MOTION_DDOT = 0

CCSDS_OMM_VERS = 2.0
CREATION_DATE  = 
ORIGINATOR     = 

OBJECT_NAME    = ARIANE 40+ R/B
OBJECT_ID      = 1995-021B
CENTER_NAME    = EARTH
REF_FRAME      = TEME
TIME_SYSTEM    = UTC
MEAN_ELEMENT_THEORY = SGP/SGP4

EPOCH          = 2026-03-27T04:33:48.853728
MEAN_MOTION    = 14.39784685
ECCENTRICITY   = .00079665
INCLINATION    = 98.4466
RA_OF_ASC_NODE = 157.4330
ARG_OF_PERICENTER = 91.3745
MEAN_ANOMALY   = 327.2072

EPHEMERIS_TYPE = 0
CLASSIFICATION_TYPE = U
NORAD_CAT_ID   = 23561
ELEMENT_SET_NO = 999
REV_AT_EPOCH   = 62176
BSTAR          = .10400722E-3
MEAN_MOTION_DOT = .283E-5
MEAN_MOTION_DDOT = 0

CCSDS_OMM_VERS = 2.0
CREATION_DATE  = 
ORIGINATOR     = 

OBJECT_NAME    = SL-16 R/B
OBJECT_ID      = 1995-058B
CENTER_NAME    = EARTH
REF_FRAME      = TEME
TIME_SYSTEM    = UTC
MEAN_ELEMENT_THEORY = SGP/SGP4

EPOCH          = 2026-03-27T07:11:38.897664
MEAN_MOTION    = 14.15499735
ECCENTRICITY   = .00101137
INCLINATION    = 71.0207
RA_OF_ASC_NODE = 143.2859
ARG_OF_PERICENTER = 93.1750
MEAN_ANOMALY   = 267.0531

EPHEMERIS_TYPE = 0
CLASSIFICATION_TYPE = U
NORAD_CAT_ID   = 23705
ELEMENT_SET_NO = 999
REV_AT_EPOCH   = 57034
BSTAR          = -.99970545E-4
MEAN_MOTION_DOT = -.243E-5
MEAN_MOTION_DDOT = 0

CCSDS_OMM_VERS = 2.0
CREATION_DATE  = 
ORIGINATOR     = 

OBJECT_NAME    = SL-16 R/B
OBJECT_ID      = 1996-051B
CENTER_NAME    = EARTH
REF_FRAME      = TEME
TIME_SYSTEM    = UTC
MEAN_ELEMENT_THEORY = SGP/SGP4

EPOCH          = 2026-03-27T07:18:46.708128
MEAN_MOTION    = 14.12420618
ECCENTRICITY   = .00136289
INCLINATION    = 70.7588
RA_OF_ASC_NODE = 137.9568
ARG_OF_PERICENTER = 119.7441
MEAN_ANOMALY   = 240.5037

EPHEMERIS_TYPE = 0
CLASSIFICATION_TYPE = U
NORAD_CAT_ID   = 24298
ELEMENT_SET_NO = 999
REV_AT_EPOCH   = 52413
BSTAR          = .76692694E-4
MEAN_MOTION_DOT = .92E-6
MEAN_MOTION_DDOT = 0

CCSDS_OMM_VERS = 2.0
CREATION_DATE  = 
ORIGINATOR     = 

OBJECT_NAME    = ORBVIEW 2 (SEASTAR)
OBJECT_ID      = 1997-037A
CENTER_NAME    = EARTH
REF_FRAME      = TEME
TIME_SYSTEM    = UTC
MEAN_ELEMENT_THEORY = SGP/SGP4

EPOCH          = 2026-03-27T04:36:14.748768
MEAN_MOTION    = 14.35506824
ECCENTRICITY   = .00024879
INCLINATION    = 98.8599
RA_OF_ASC_NODE = 250.9702
ARG_OF_PERICENTER = 34.6049
MEAN_ANOMALY   = 325.5298

EPHEMERIS_TYPE = 0
CLASSIFICATION_TYPE = U
NORAD_CAT_ID   = 24883
ELEMENT_SET_NO = 999
REV_AT_EPOCH   = 51098
BSTAR          = .11964607E-3
MEAN_MOTION_DOT = .297E-5
MEAN_MOTION_DDOT = 0

CCSDS_OMM_VERS = 2.0
CREATION_DATE  = 
ORIGINATOR     = 

OBJECT_NAME    = SL-16 R/B
OBJECT_ID      = 1998-043G
CENTER_NAME    = EARTH
REF_FRAME      = TEME
TIME_SYSTEM    = UTC
MEAN_ELEMENT_THEORY = SGP/SGP4

EPOCH          = 2026-03-27T06:32:15.866304
MEAN_MOTION    = 14.26053738
ECCENTRICITY   = .0009278
INCLINATION    = 98.8284
RA_OF_ASC_NODE = 39.7637
ARG_OF_PERICENTER = 329.3204
MEAN_ANOMALY   = 30.7432

EPHEMERIS_TYPE = 0
CLASSIFICATION_TYPE = U
NORAD_CAT_ID   = 25400
ELEMENT_SET_NO = 999
REV_AT_EPOCH   = 44149
BSTAR          = .48173E-4
MEAN_MOTION_DOT = .7E-6
MEAN_MOTION_DDOT = 0

